{
  "type": "FeatureCollection",
  "features": [
    {
      "type": "Feature",
      "properties": { "SITECODE": "BE2100017", "SITENAME": "Kalmthoutse Heide", "SITETYPE": "SPA", "AREA_HA": 3750 },
      "geometry": {
        "type": "MultiPolygon",
        "coordinates": [
          [[[4.34, 51.38], [4.35, 51.39], [4.355, 51.405], [4.36, 51.415], [4.37, 51.425], [4.385, 51.435], [4.40, 51.44], [4.415, 51.438], [4.43, 51.43], [4.44, 51.42], [4.445, 51.41], [4.44, 51.395], [4.435, 51.385], [4.425, 51.375], [4.41, 51.365], [4.395, 51.36], [4.38, 51.358], [4.365, 51.36], [4.35, 51.365], [4.34, 51.375], [4.34, 51.38]]],
          [[[4.30, 51.39], [4.31, 51.40], [4.32, 51.405], [4.33, 51.40], [4.325, 51.39], [4.315, 51.385], [4.30, 51.39]]]
        ]
      }
    },
    {
      "type": "Feature",
      "properties": { "SITECODE": "BE2100040", "SITENAME": "Groot Schietveld", "SITETYPE": "SPA", "AREA_HA": 1700 },
      "geometry": {
        "type": "Polygon",
        "coordinates": [[[4.50, 51.31], [4.51, 51.32], [4.525, 51.335], [4.54, 51.345], [4.56, 51.355], [4.58, 51.36], [4.60, 51.358], [4.62, 51.355], [4.635, 51.345], [4.64, 51.335], [4.635, 51.32], [4.625, 51.31], [4.61, 51.30], [4.59, 51.295], [4.57, 51.29], [4.55, 51.295], [4.535, 51.30], [4.52, 51.305], [4.50, 51.31]]]
      }
    },
    {
      "type": "Feature",
      "properties": { "SITECODE": "BE2100026", "SITENAME": "Schelde- en Durme-estuarium", "SITETYPE": "SPA", "AREA_HA": 9200 },
      "geometry": {
        "type": "MultiPolygon",
        "coordinates": [
          [[[4.05, 51.16], [4.07, 51.17], [4.09, 51.18], [4.12, 51.19], [4.15, 51.195], [4.18, 51.20], [4.21, 51.21], [4.24, 51.22], [4.27, 51.225], [4.29, 51.22], [4.28, 51.21], [4.26, 51.20], [4.24, 51.195], [4.22, 51.19], [4.20, 51.185], [4.18, 51.18], [4.16, 51.175], [4.14, 51.17], [4.12, 51.165], [4.10, 51.155], [4.08, 51.15], [4.06, 51.15], [4.05, 51.155], [4.05, 51.16]]],
          [[[3.98, 51.14], [4.00, 51.15], [4.02, 51.155], [4.04, 51.15], [4.03, 51.14], [4.01, 51.135], [3.99, 51.13], [3.98, 51.14]]],
          [[[4.30, 51.10], [4.32, 51.115], [4.34, 51.12], [4.36, 51.125], [4.38, 51.12], [4.37, 51.11], [4.35, 51.10], [4.33, 51.095], [4.31, 51.095], [4.30, 51.10]]]
        ]
      }
    },
    {
      "type": "Feature",
      "properties": { "SITECODE": "BE2100016", "SITENAME": "Het Zwin", "SITETYPE": "SPA", "AREA_HA": 1530 },
      "geometry": {
        "type": "Polygon",
        "coordinates": [[[3.31, 51.34], [3.33, 51.35], [3.35, 51.36], [3.37, 51.365], [3.39, 51.37], [3.41, 51.368], [3.42, 51.36], [3.415, 51.35], [3.40, 51.34], [3.385, 51.335], [3.37, 51.33], [3.35, 51.325], [3.33, 51.33], [3.32, 51.335], [3.31, 51.34]]]
      }
    },
    {
      "type": "Feature",
      "properties": { "SITECODE": "BE2500001", "SITENAME": "Dijlevallei", "SITETYPE": "SAC", "AREA_HA": 4200 },
      "geometry": {
        "type": "MultiPolygon",
        "coordinates": [
          [[[4.44, 50.78], [4.45, 50.80], [4.46, 50.82], [4.475, 50.84], [4.49, 50.855], [4.51, 50.86], [4.53, 50.855], [4.545, 50.845], [4.55, 50.83], [4.545, 50.815], [4.535, 50.80], [4.52, 50.785], [4.505, 50.775], [4.49, 50.77], [4.47, 50.77], [4.455, 50.775], [4.44, 50.78]]],
          [[[4.52, 50.86], [4.53, 50.875], [4.545, 50.89], [4.56, 50.895], [4.575, 50.89], [4.57, 50.875], [4.555, 50.865], [4.54, 50.86], [4.52, 50.86]]]
        ]
      }
    },
    {
      "type": "Feature",
      "properties": { "SITECODE": "BE2300006", "SITENAME": "Demervallei", "SITETYPE": "SAC", "AREA_HA": 5800 },
      "geometry": {
        "type": "MultiPolygon",
        "coordinates": [
          [[[4.95, 50.96], [4.97, 50.975], [4.99, 50.99], [5.02, 51.00], [5.05, 51.01], [5.08, 51.02], [5.10, 51.025], [5.13, 51.03], [5.15, 51.035], [5.17, 51.03], [5.165, 51.02], [5.15, 51.01], [5.13, 51.00], [5.10, 50.99], [5.08, 50.98], [5.06, 50.975], [5.04, 50.968], [5.02, 50.96], [5.00, 50.955], [4.97, 50.955], [4.95, 50.96]]],
          [[[5.17, 51.03], [5.19, 51.04], [5.21, 51.045], [5.23, 51.04], [5.22, 51.03], [5.20, 51.025], [5.18, 51.025], [5.17, 51.03]]]
        ]
      }
    },
    {
      "type": "Feature",
      "properties": { "SITECODE": "BE2200039", "SITENAME": "Mechelse Heide & Vallei van de Ziepbeek", "SITETYPE": "SPA", "AREA_HA": 2400 },
      "geometry": {
        "type": "Polygon",
        "coordinates": [[[5.58, 50.93], [5.60, 50.94], [5.62, 50.955], [5.64, 50.965], [5.66, 50.975], [5.685, 50.98], [5.71, 50.985], [5.73, 50.98], [5.74, 50.97], [5.735, 50.955], [5.725, 50.94], [5.71, 50.93], [5.69, 50.925], [5.67, 50.92], [5.65, 50.918], [5.63, 50.92], [5.61, 50.925], [5.595, 50.928], [5.58, 50.93]]]
      }
    },
    {
      "type": "Feature",
      "properties": { "SITECODE": "BE2300044", "SITENAME": "Haspengouw", "SITETYPE": "SAC", "AREA_HA": 3100 },
      "geometry": {
        "type": "MultiPolygon",
        "coordinates": [
          [[[5.20, 50.76], [5.22, 50.775], [5.245, 50.79], [5.27, 50.80], [5.30, 50.808], [5.33, 50.81], [5.355, 50.805], [5.37, 50.795], [5.375, 50.78], [5.365, 50.765], [5.35, 50.755], [5.33, 50.748], [5.305, 50.745], [5.28, 50.745], [5.26, 50.748], [5.24, 50.752], [5.22, 50.755], [5.20, 50.76]]],
          [[[5.38, 50.79], [5.395, 50.80], [5.41, 50.805], [5.425, 50.80], [5.42, 50.79], [5.405, 50.785], [5.39, 50.785], [5.38, 50.79]]],
          [[[5.15, 50.77], [5.16, 50.78], [5.175, 50.785], [5.19, 50.78], [5.185, 50.77], [5.17, 50.765], [5.155, 50.765], [5.15, 50.77]]]
        ]
      }
    },
    {
      "type": "Feature",
      "properties": { "SITECODE": "BE2500004", "SITENAME": "Zoniënwoud", "SITETYPE": "SAC", "AREA_HA": 4400 },
      "geometry": {
        "type": "Polygon",
        "coordinates": [[[4.36, 50.73], [4.37, 50.74], [4.385, 50.755], [4.40, 50.765], [4.42, 50.775], [4.44, 50.78], [4.465, 50.778], [4.48, 50.77], [4.49, 50.755], [4.485, 50.74], [4.475, 50.73], [4.46, 50.72], [4.44, 50.715], [4.42, 50.712], [4.40, 50.715], [4.385, 50.72], [4.37, 50.725], [4.36, 50.73]]]
      }
    },
    {
      "type": "Feature",
      "properties": { "SITECODE": "BE2100024", "SITENAME": "Turnhouts Vennengebied", "SITETYPE": "SPA", "AREA_HA": 3200 },
      "geometry": {
        "type": "MultiPolygon",
        "coordinates": [
          [[[4.86, 51.28], [4.88, 51.295], [4.90, 51.31], [4.925, 51.32], [4.95, 51.325], [4.97, 51.32], [4.98, 51.31], [4.975, 51.295], [4.965, 51.28], [4.95, 51.27], [4.93, 51.265], [4.91, 51.265], [4.89, 51.27], [4.87, 51.275], [4.86, 51.28]]],
          [[[4.99, 51.30], [5.00, 51.315], [5.015, 51.32], [5.03, 51.315], [5.025, 51.30], [5.01, 51.295], [4.995, 51.295], [4.99, 51.30]]]
        ]
      }
    },
    {
      "type": "Feature",
      "properties": { "SITECODE": "BE2200028", "SITENAME": "Hoge Kempen", "SITETYPE": "SAC", "AREA_HA": 5700 },
      "geometry": {
        "type": "MultiPolygon",
        "coordinates": [
          [[[5.50, 50.94], [5.52, 50.955], [5.535, 50.97], [5.555, 50.98], [5.575, 50.985], [5.59, 50.98], [5.595, 50.965], [5.585, 50.95], [5.57, 50.94], [5.55, 50.932], [5.53, 50.93], [5.51, 50.935], [5.50, 50.94]]],
          [[[5.44, 50.96], [5.455, 50.975], [5.475, 50.98], [5.49, 50.975], [5.485, 50.96], [5.47, 50.955], [5.455, 50.955], [5.44, 50.96]]],
          [[[5.59, 50.99], [5.60, 51.00], [5.615, 51.005], [5.63, 51.00], [5.625, 50.99], [5.61, 50.985], [5.595, 50.985], [5.59, 50.99]]]
        ]
      }
    },
    {
      "type": "Feature",
      "properties": { "SITECODE": "BE2300005", "SITENAME": "Vallei van de Zwarte Beek", "SITETYPE": "SAC", "AREA_HA": 1100 },
      "geometry": {
        "type": "Polygon",
        "coordinates": [[[5.20, 51.02], [5.22, 51.035], [5.24, 51.045], [5.265, 51.05], [5.285, 51.048], [5.295, 51.04], [5.29, 51.025], [5.275, 51.015], [5.255, 51.01], [5.235, 51.01], [5.22, 51.015], [5.20, 51.02]]]
      }
    },
    {
      "type": "Feature",
      "properties": { "SITECODE": "BE2100015", "SITENAME": "Polders", "SITETYPE": "SPA", "AREA_HA": 6800 },
      "geometry": {
        "type": "MultiPolygon",
        "coordinates": [
          [[[2.85, 51.12], [2.87, 51.13], [2.90, 51.14], [2.93, 51.145], [2.96, 51.15], [2.99, 51.155], [3.02, 51.155], [3.05, 51.16], [3.08, 51.158], [3.095, 51.15], [3.09, 51.14], [3.07, 51.13], [3.04, 51.125], [3.01, 51.12], [2.98, 51.115], [2.95, 51.11], [2.92, 51.108], [2.90, 51.11], [2.87, 51.115], [2.85, 51.12]]],
          [[[3.10, 51.15], [3.12, 51.16], [3.145, 51.165], [3.16, 51.16], [3.155, 51.15], [3.14, 51.145], [3.12, 51.145], [3.10, 51.15]]],
          [[[2.72, 51.08], [2.74, 51.09], [2.76, 51.095], [2.78, 51.09], [2.775, 51.08], [2.76, 51.075], [2.74, 51.075], [2.72, 51.08]]]
        ]
      }
    },
    {
      "type": "Feature",
      "properties": { "SITECODE": "BE2100050", "SITENAME": "Bossen van het Hageland", "SITETYPE": "SAC", "AREA_HA": 2800 },
      "geometry": {
        "type": "MultiPolygon",
        "coordinates": [
          [[[4.80, 50.92], [4.82, 50.935], [4.84, 50.945], [4.865, 50.95], [4.89, 50.948], [4.90, 50.935], [4.895, 50.92], [4.88, 50.91], [4.86, 50.905], [4.84, 50.905], [4.82, 50.91], [4.80, 50.92]]],
          [[[4.90, 50.95], [4.915, 50.96], [4.935, 50.965], [4.95, 50.96], [4.945, 50.948], [4.93, 50.94], [4.915, 50.94], [4.90, 50.945], [4.90, 50.95]]]
        ]
      }
    },
    {
      "type": "Feature",
      "properties": { "SITECODE": "BE2100033", "SITENAME": "De Blankaart", "SITETYPE": "SPA", "AREA_HA": 800 },
      "geometry": {
        "type": "Polygon",
        "coordinates": [[[2.86, 50.96], [2.875, 50.975], [2.895, 50.985], [2.92, 50.99], [2.94, 50.985], [2.945, 50.972], [2.935, 50.96], [2.92, 50.952], [2.90, 50.948], [2.88, 50.95], [2.86, 50.955], [2.86, 50.96]]]
      }
    },
    {
      "type": "Feature",
      "properties": { "SITECODE": "BE2100055", "SITENAME": "Krekengebied", "SITETYPE": "SAC", "AREA_HA": 2200 },
      "geometry": {
        "type": "MultiPolygon",
        "coordinates": [
          [[[3.72, 51.22], [3.74, 51.23], [3.76, 51.24], [3.785, 51.245], [3.81, 51.248], [3.835, 51.245], [3.85, 51.24], [3.845, 51.225], [3.83, 51.215], [3.81, 51.21], [3.785, 51.208], [3.76, 51.21], [3.74, 51.215], [3.72, 51.22]]],
          [[[3.86, 51.23], [3.875, 51.24], [3.895, 51.245], [3.91, 51.24], [3.905, 51.23], [3.89, 51.225], [3.87, 51.225], [3.86, 51.23]]]
        ]
      }
    },
    {
      "type": "Feature",
      "properties": { "SITECODE": "BE2100060", "SITENAME": "IJzervallei", "SITETYPE": "SPA", "AREA_HA": 4100 },
      "geometry": {
        "type": "MultiPolygon",
        "coordinates": [
          [[[2.68, 50.89], [2.70, 50.90], [2.73, 50.91], [2.76, 50.915], [2.79, 50.92], [2.82, 50.925], [2.85, 50.92], [2.84, 50.91], [2.82, 50.90], [2.80, 50.895], [2.78, 50.89], [2.75, 50.885], [2.73, 50.88], [2.71, 50.88], [2.69, 50.885], [2.68, 50.89]]],
          [[[2.62, 50.87], [2.64, 50.88], [2.66, 50.885], [2.68, 50.88], [2.67, 50.87], [2.655, 50.865], [2.635, 50.865], [2.62, 50.87]]]
        ]
      }
    },
    {
      "type": "Feature",
      "properties": { "SITECODE": "BE2100070", "SITENAME": "Bulskampveld", "SITETYPE": "SAC", "AREA_HA": 1300 },
      "geometry": {
        "type": "Polygon",
        "coordinates": [[[3.22, 51.05], [3.24, 51.06], [3.26, 51.07], [3.285, 51.075], [3.31, 51.072], [3.32, 51.06], [3.315, 51.048], [3.30, 51.04], [3.28, 51.035], [3.26, 51.035], [3.24, 51.04], [3.225, 51.045], [3.22, 51.05]]]
      }
    },
    {
      "type": "Feature",
      "properties": { "SITECODE": "BE2100080", "SITENAME": "Meerdaalwoud en Heverleebos", "SITETYPE": "SAC", "AREA_HA": 1800 },
      "geometry": {
        "type": "Polygon",
        "coordinates": [[[4.62, 50.80], [4.635, 50.815], [4.655, 50.825], [4.68, 50.83], [4.70, 50.828], [4.71, 50.815], [4.705, 50.80], [4.69, 50.79], [4.67, 50.785], [4.65, 50.785], [4.635, 50.79], [4.62, 50.80]]]
      }
    },
    {
      "type": "Feature",
      "properties": { "SITECODE": "BE2200045", "SITENAME": "Voerstreek", "SITETYPE": "SAC", "AREA_HA": 3400 },
      "geometry": {
        "type": "MultiPolygon",
        "coordinates": [
          [[[5.74, 50.76], [5.76, 50.775], [5.78, 50.785], [5.805, 50.79], [5.83, 50.788], [5.845, 50.778], [5.84, 50.765], [5.825, 50.755], [5.805, 50.748], [5.78, 50.745], [5.76, 50.75], [5.745, 50.755], [5.74, 50.76]]],
          [[[5.70, 50.77], [5.715, 50.78], [5.735, 50.785], [5.74, 50.775], [5.73, 50.765], [5.715, 50.762], [5.70, 50.765], [5.70, 50.77]]]
        ]
      }
    },
    {
      "type": "Feature",
      "properties": { "SITECODE": "BE2100090", "SITENAME": "Bos- en heidegebieden ten oosten van Antwerpen", "SITETYPE": "SAC", "AREA_HA": 4500 },
      "geometry": {
        "type": "MultiPolygon",
        "coordinates": [
          [[[4.58, 51.18], [4.60, 51.195], [4.62, 51.21], [4.645, 51.22], [4.67, 51.225], [4.695, 51.22], [4.71, 51.21], [4.705, 51.195], [4.69, 51.18], [4.67, 51.17], [4.65, 51.168], [4.63, 51.17], [4.61, 51.175], [4.59, 51.178], [4.58, 51.18]]],
          [[[4.72, 51.20], [4.735, 51.215], [4.755, 51.22], [4.77, 51.215], [4.765, 51.20], [4.75, 51.195], [4.735, 51.195], [4.72, 51.20]]],
          [[[4.55, 51.20], [4.56, 51.21], [4.575, 51.215], [4.585, 51.21], [4.58, 51.20], [4.565, 51.195], [4.555, 51.195], [4.55, 51.20]]]
        ]
      }
    },
    {
      "type": "Feature",
      "properties": { "SITECODE": "BE2100095", "SITENAME": "Schorren en polders van de Beneden-Schelde", "SITETYPE": "SPA", "AREA_HA": 3600 },
      "geometry": {
        "type": "MultiPolygon",
        "coordinates": [
          [[[4.15, 51.28], [4.17, 51.29], [4.19, 51.30], [4.22, 51.31], [4.25, 51.315], [4.275, 51.31], [4.29, 51.30], [4.285, 51.29], [4.27, 51.28], [4.25, 51.275], [4.23, 51.27], [4.21, 51.265], [4.19, 51.265], [4.17, 51.27], [4.155, 51.275], [4.15, 51.28]]],
          [[[4.30, 51.295], [4.315, 51.305], [4.335, 51.31], [4.35, 51.305], [4.345, 51.295], [4.33, 51.29], [4.315, 51.29], [4.30, 51.295]]]
        ]
      }
    },
    {
      "type": "Feature",
      "properties": { "SITECODE": "BE2300010", "SITENAME": "Midden-Limburg", "SITETYPE": "SAC", "AREA_HA": 2900 },
      "geometry": {
        "type": "MultiPolygon",
        "coordinates": [
          [[[5.30, 51.00], [5.32, 51.015], [5.34, 51.025], [5.365, 51.03], [5.39, 51.028], [5.40, 51.015], [5.395, 51.00], [5.38, 50.99], [5.36, 50.985], [5.34, 50.985], [5.32, 50.99], [5.30, 51.00]]],
          [[[5.40, 51.02], [5.415, 51.03], [5.435, 51.035], [5.45, 51.03], [5.445, 51.02], [5.43, 51.015], [5.415, 51.015], [5.40, 51.02]]]
        ]
      }
    },
    {
      "type": "Feature",
      "properties": { "SITECODE": "BE2100045", "SITENAME": "Durme en middenloop van de Schelde", "SITETYPE": "SAC", "AREA_HA": 1600 },
      "geometry": {
        "type": "Polygon",
        "coordinates": [[[3.92, 51.04], [3.94, 51.055], [3.965, 51.065], [3.99, 51.07], [4.015, 51.068], [4.03, 51.06], [4.025, 51.045], [4.01, 51.035], [3.99, 51.03], [3.97, 51.028], [3.95, 51.03], [3.935, 51.035], [3.92, 51.04]]]
      }
    },
    {
      "type": "Feature",
      "properties": { "SITECODE": "BE2100052", "SITENAME": "Vlaamse Ardennen", "SITETYPE": "SAC", "AREA_HA": 2100 },
      "geometry": {
        "type": "MultiPolygon",
        "coordinates": [
          [[[3.60, 50.80], [3.62, 50.815], [3.645, 50.825], [3.67, 50.83], [3.695, 50.828], [3.71, 50.82], [3.705, 50.805], [3.69, 50.795], [3.67, 50.79], [3.65, 50.788], [3.63, 50.79], [3.615, 50.795], [3.60, 50.80]]],
          [[[3.52, 50.82], [3.535, 50.83], [3.555, 50.835], [3.57, 50.83], [3.565, 50.82], [3.55, 50.815], [3.535, 50.815], [3.52, 50.82]]]
        ]
      }
    }
  ]
}